TYVAK-182A              
1 48271U 21034D   26068.71131789  .00007163  00000+0  50673-3 0  9991
2 48271  97.5843 129.3711 0004862 316.5650  43.5193 15.05150420264864
STARLINK-5858           
1 57264U 23094AY  26068.16354126 -.00000195  00000+0  62342-6 0  9990
2 57264  43.0035  19.9351 0001278 268.4358  91.6338 15.02532713147194
